GAOFEN-3                
1 41727U 16049A   26168.84713498 -.00000128  00000+0 -25796-4 0  9993
2 41727  98.4004 176.6230 0001411  99.0080 261.1269 14.42215082518747
SKYSAT-C4               
1 41771U 16058B   26168.84907616  .00014363  00000+0  27061-3 0  9999
2 41771  96.9167 190.5936 0001429 135.2822 224.8545 15.48604030545579
SKYSAT-C5               
1 41772U 16058C   26168.62562075  .00006091  00000+0  18463-3 0  9997
2 41772  97.0465 209.2466 0001051 311.8360  48.2794 15.34475443543817
SKYSAT-C2               
1 41773U 16058D   26168.51893196  .00009361  00000+0  22086-3 0  9996
2 41773  97.0162 190.6014 0004647  70.1413 290.0335 15.42076805545102
SKYSAT-C3               
1 41774U 16058E   26168.59454161  .00018287  00000+0  29922-3 0  9993
2 41774  96.8998 199.4253 0001480  95.4933 264.6490 15.52553563546177
ALSAT-1B                
1 41785U 16059C   26168.85185163  .00000243  00000+0  45912-4 0  9999
2 41785  97.7743 177.5868 0008112 217.6881 142.3759 14.72274880520675
PATHFINDER 1            
1 41787U 16059E   26168.54559124  .00000433  00000+0  83878-4 0  9993
2 41787  97.8166 167.8057 0027824 202.3935 157.6058 14.67663477519768
SCATSAT 1               
1 41790U 16059H   26168.75430785  .00000853  00000+0  11890-3 0  9991
2 41790  98.1191 232.5263 0053405 245.6154 113.9478 14.79526505101671
GOKTURK 1A              
1 41875U 16073A   26168.86137440  .00000030  00000+0  15058-4 0  9993
2 41875  98.1254  63.5259 0001444  77.1030 283.0333 14.62774128508925
RESOURCESAT-2A          
1 41877U 16074A   26168.84500178 -.00000089  00000+0 -20502-4 0  9992
2 41877  98.7529 242.3439 0003357  82.3780 277.7778 14.21615625494399
CARTOSAT-2D             
1 41948U 17008A   26168.88294830  .00002523  00000+0  12305-3 0  9992
2 41948  97.4104 228.1763 0003807 231.8635 128.2257 15.19209423517688
SENTINEL-2B             
1 42063U 17013A   26168.83686300 -.00000044  00000+0 -15392-6 0  9999
2 42063  98.5694 243.6022 0001191  86.8643 273.2676 14.30816563484730
CARTOSAT-2E             
1 42767U 17036C   26168.83491752  .00002376  00000+0  11594-3 0  9995
2 42767  97.4271 228.6270 0002496 316.9093  43.1946 15.19256796498242
FORMOSAT-5              
1 42920U 17049A   26168.81149942  .00000125  00000+0  42646-4 0  9992
2 42920  98.2255 244.1074 0012673  82.6445 277.6190 14.50899091466767
SENTINEL-5P             
1 42969U 17064A   26168.76576892  .00000025  00000+0  33063-4 0  9996
2 42969  98.7925 110.8929 0000968  85.9722 274.1564 14.19519022449648
SKYSAT-C11              
1 42987U 17068A   26168.37844914  .00023474  00000+0  31556-3 0  9997
2 42987  97.4358 317.2172 0000639  86.7945 273.3384 15.57900957483270
SKYSAT-C10              
1 42988U 17068B   26168.35755764  .00006905  00000+0  20813-3 0  9994
2 42988  97.4512 305.2058 0001109  96.7257 263.4112 15.34640271482388
SKYSAT-C9               
1 42989U 17068C   26168.30387213  .00010506  00000+0  25174-3 0  9997
2 42989  97.4432 306.0875 0009402 132.5831 227.6210 15.41563589482775
SKYSAT-C8               
1 42990U 17068D   26168.32865419  .00008487  00000+0  23695-3 0  9991
2 42990  97.4530 304.9769 0001477  95.7626 264.3786 15.36977849482331
SKYSAT-C7               
1 42991U 17068E   26168.32227730  .00008534  00000+0  23843-3 0  9998
2 42991  97.4539 305.9599 0007200 106.2603 253.9433 15.36928292482393
SKYSAT-C6               
1 42992U 17068F   26168.34243169  .00007608  00000+0  23211-3 0  9995
2 42992  97.4573 305.9494 0004444 137.0324 223.1267 15.34212841482348
CARTOSAT-2F             
1 43111U 18004A   26168.86711154  .00001773  00000+0  87474-4 0  9990
2 43111  97.4782 228.4951 0000662 201.4113 158.7093 15.19216049467431
GAOFEN-1 02             
1 43259U 18031A   26168.84066019  .00000271  00000+0  46416-4 0  9997
2 43259  98.0526 231.3661 0003831  32.0617 328.0825 14.76456420442794
GAOFEN-1 03             
1 43260U 18031B   26168.88657356  .00000577  00000+0  90333-4 0  9999
2 43260  98.0517 231.2702 0003730  77.6951 282.4676 14.76470048442794
GAOFEN-1 04             
1 43262U 18031D   26168.86228661  .00000352  00000+0  58012-4 0  9991
2 43262  98.0528 231.4366 0002200  75.8537 284.2917 14.76433838442780
SENTINEL-3B             
1 43437U 18039A   26168.82087780  .00000085  00000+0  52992-4 0  9998
2 43437  98.6248 236.3440 0000723  90.0659 270.0604 14.26734886424214
GAOFEN-5 01             
1 43461U 18043A   26168.81528443  .00000268  00000+0  65223-4 0  9999
2 43461  98.4569 140.4146 0003035  82.4255 277.7290 14.60605960431782
GAOFEN-6                
1 43484U 18048A   26168.61325998  .00000765  00000+0  11668-3 0  9992
2 43484  97.9301 231.3603 0012414 165.8712 194.2847 14.76611755433451
GAOFEN-11 01            
1 43585U 18063A   26168.88107775  .00011853  00000+0  17624-3 0  9999
2 43585  97.1293 235.7579 0003018 355.1558   4.9667 15.55305187440459
ICESAT-2                
1 43613U 18070A   26168.80983941  .00008240  00000+0  29895-3 0  9997
2 43613  92.0085 291.1470 0006049 105.4855 254.7062 15.28292693432556
