OBJECT_NAME,OBJECT_ID,EPOCH,MEAN_MOTION,ECCENTRICITY,INCLINATION,RA_OF_ASC_NODE,ARG_OF_PERICENTER,MEAN_ANOMALY,EPHEMERIS_TYPE,CLASSIFICATION_TYPE,NORAD_CAT_ID,ELEMENT_SET_NO,REV_AT_EPOCH,BSTAR,MEAN_MOTION_DOT,MEAN_MOTION_DDOT
GAOFEN-3,2016-049A,2026-06-17T20:19:52.462272,14.42215082,.0001411,98.4004,176.6230,99.0080,261.1269,0,U,41727,999,51874,-.25796E-4,-.128E-5,0
SKYSAT-C4,2016-058B,2026-06-17T20:22:40.180224,15.48604030,.0001429,96.9167,190.5936,135.2822,224.8545,0,U,41771,999,54557,.27061E-3,.14363E-3,0
SKYSAT-C5,2016-058C,2026-06-17T15:00:53.632800,15.34475443,.0001051,97.0465,209.2466,311.8360,48.2794,0,U,41772,999,54381,.18463E-3,.6091E-4,0
SKYSAT-C2,2016-058D,2026-06-17T12:27:15.721344,15.42076805,.0004647,97.0162,190.6014,70.1413,290.0335,0,U,41773,999,54510,.22086E-3,.9361E-4,0
SKYSAT-C3,2016-058E,2026-06-17T14:16:08.395104,15.52553563,.000148,96.8998,199.4253,95.4933,264.6490,0,U,41774,999,54617,.29922E-3,.18287E-3,0
ALSAT-1B,2016-059C,2026-06-17T20:26:39.980832,14.72274880,.0008112,97.7743,177.5868,217.6881,142.3759,0,U,41785,999,52067,.45912E-4,.243E-5,0
PATHFINDER 1,2016-059E,2026-06-17T13:05:39.083136,14.67663477,.0027824,97.8166,167.8057,202.3935,157.6058,0,U,41787,999,51976,.83878E-4,.433E-5,0
SCATSAT 1,2016-059H,2026-06-17T18:06:12.198240,14.79526505,.0053405,98.1191,232.5263,245.6154,113.9478,0,U,41790,999,10167,.1189E-3,.853E-5,0
GOKTURK 1A,2016-073A,2026-06-17T20:40:22.748160,14.62774128,.0001444,98.1254,63.5259,77.1030,283.0333,0,U,41875,999,50892,.15058E-4,.3E-6,0
RESOURCESAT-2A,2016-074A,2026-06-17T20:16:48.153792,14.21615625,.0003357,98.7529,242.3439,82.3780,277.7778,0,U,41877,999,49439,-.20502E-4,-.89E-6,0
CARTOSAT-2D,2017-008A,2026-06-17T21:11:26.733120,15.19209423,.0003807,97.4104,228.1763,231.8635,128.2257,0,U,41948,999,51768,.12305E-3,.2523E-4,0
SENTINEL-2B,2017-013A,2026-06-17T20:05:04.963200,14.30816563,.0001191,98.5694,243.6022,86.8643,273.2676,0,U,42063,999,48473,-.15392E-6,-.44E-6,0
CARTOSAT-2E,2017-036C,2026-06-17T20:02:16.873728,15.19256796,.0002496,97.4271,228.6270,316.9093,43.1946,0,U,42767,999,49824,.11594E-3,.2376E-4,0
FORMOSAT-5,2017-049A,2026-06-17T19:28:33.549888,14.50899091,.0012673,98.2255,244.1074,82.6445,277.6190,0,U,42920,999,46676,.42646E-4,.125E-5,0
SENTINEL-5P,2017-064A,2026-06-17T18:22:42.434688,14.19519022,.0000968,98.7925,110.8929,85.9722,274.1564,0,U,42969,999,44964,.33063E-4,.25E-6,0
SKYSAT-C11,2017-068A,2026-06-17T09:04:58.005696,15.57900957,.00006397,97.4358,317.2172,86.7945,273.3384,0,U,42987,999,48327,.31556359E-3,.23474E-3,0
SKYSAT-C10,2017-068B,2026-06-17T08:34:52.980096,15.34640271,.00011092,97.4512,305.2058,96.7257,263.4112,0,U,42988,999,48238,.2081268E-3,.6905E-4,0
SKYSAT-C9,2017-068C,2026-06-17T07:17:34.552032,15.41563589,.00094028,97.4432,306.0875,132.5831,227.6210,0,U,42989,999,48277,.25173627E-3,.10506E-3,0
SKYSAT-C8,2017-068D,2026-06-17T07:53:15.722016,15.36977849,.00014775,97.4530,304.9769,95.7626,264.3786,0,U,42990,999,48233,.23694522E-3,.8487E-4,0
SKYSAT-C7,2017-068E,2026-06-17T07:44:04.758720,15.36928292,.00072001,97.4539,305.9599,106.2603,253.9433,0,U,42991,999,48239,.23842897E-3,.8534E-4,0
SKYSAT-C6,2017-068F,2026-06-17T08:13:06.098016,15.34212841,.00044444,97.4573,305.9494,137.0324,223.1267,0,U,42992,999,48234,.23210709E-3,.7608E-4,0
CARTOSAT-2F,2018-004A,2026-06-17T20:48:38.437056,15.19216049,.0000662,97.4782,228.4951,201.4113,158.7093,0,U,43111,999,46743,.87474E-4,.1773E-4,0
GAOFEN-1 02,2018-031A,2026-06-17T20:10:33.040416,14.76456420,.0003831,98.0526,231.3661,32.0617,328.0825,0,U,43259,999,44279,.46416E-4,.271E-5,0
GAOFEN-1 03,2018-031B,2026-06-17T21:16:39.955584,14.76470048,.000373,98.0517,231.2702,77.6951,282.4676,0,U,43260,999,44279,.90333E-4,.577E-5,0
GAOFEN-1 04,2018-031D,2026-06-17T20:41:41.563104,14.76433838,.00022,98.0528,231.4366,75.8537,284.2917,0,U,43262,999,44278,.58012E-4,.352E-5,0
SENTINEL-3B,2018-039A,2026-06-17T19:42:03.841920,14.26734886,.0000723,98.6248,236.3440,90.0659,270.0604,0,U,43437,999,42421,.52992E-4,.85E-6,0
GAOFEN-5 01,2018-043A,2026-06-17T19:34:00.574752,14.60605960,.0003035,98.4569,140.4146,82.4255,277.7290,0,U,43461,999,43178,.65223E-4,.268E-5,0
GAOFEN-6,2018-048A,2026-06-17T14:43:05.662272,14.76611755,.0012414,97.9301,231.3603,165.8712,194.2847,0,U,43484,999,43345,.11668E-3,.765E-5,0
GAOFEN-11 01,2018-063A,2026-06-17T21:08:45.117600,15.55305187,.0003018,97.1293,235.7579,355.1558,4.9667,0,U,43585,999,44045,.17624E-3,.11853E-3,0
ICESAT-2,2018-070A,2026-06-17T19:26:10.125024,15.28292693,.0006049,92.0085,291.1470,105.4855,254.7062,0,U,43613,999,43255,.29895E-3,.824E-4,0
